[{"OBJECT_NAME":"STARLINK-31717","OBJECT_ID":"2024-062M","EPOCH":"2026-03-09T22:01:36.696576","MEAN_MOTION":15.3018144,"ECCENTRICITY":0.00012463,"INCLINATION":53.1585,"RA_OF_ASC_NODE":254.7919,"ARG_OF_PERICENTER":97.0222,"MEAN_ANOMALY":263.0921,"EPHEMERIS_TYPE":0,"CLASSIFICATION_TYPE":"U","NORAD_CAT_ID":59385,"ELEMENT_SET_NO":999,"REV_AT_EPOCH":10969,"BSTAR":-3.1110226e-5,"MEAN_MOTION_DOT":-1.28e-5,"MEAN_MOTION_DDOT":0},{"OBJECT_NAME":"CZ-4B R\/B","OBJECT_ID":"2010-051C","EPOCH":"2026-03-09T16:48:37.977120","MEAN_MOTION":15.17426017,"ECCENTRICITY":0.00758037,"INCLINATION":97.7974,"RA_OF_ASC_NODE":110.8647,"ARG_OF_PERICENTER":95.044,"MEAN_ANOMALY":265.9451,"EPHEMERIS_TYPE":0,"CLASSIFICATION_TYPE":"U","NORAD_CAT_ID":37181,"ELEMENT_SET_NO":999,"REV_AT_EPOCH":84355,"BSTAR":0.00029718512,"MEAN_MOTION_DOT":6.328e-5,"MEAN_MOTION_DDOT":0}]
